{
    "links": {
        "self": "http://www.neowsapp.com/rest/v1/neo/3551326?api_key=iIulBulltgU6a56xZRHN4H3l9WmuAYTsLGpBGhQ2"
    },
    "id": "3551326",
    "neo_reference_id": "3551326",
    "name": "(2010 VV98)",
    "designation": "2010 VV98",
    "nasa_jpl_url": "http://ssd.jpl.nasa.gov/sbdb.cgi?sstr=3551326",
    "absolute_magnitude_h": 24.6,
    "estimated_diameter": {
        "kilometers": {
            "estimated_diameter_min": 0.0319561887,
            "estimated_diameter_max": 0.0714562102
        },
        "meters": {
            "estimated_diameter_min": 31.9561886721,
            "estimated_diameter_max": 71.4562101727
        },
        "miles": {
            "estimated_diameter_min": 0.0198566489,
            "estimated_diameter_max": 0.0444008168
        },
        "feet": {
            "estimated_diameter_min": 104.8431420431,
            "estimated_diameter_max": 234.436392583
        }
    },
    "is_potentially_hazardous_asteroid": false,
    "close_approach_data": [
        {
            "close_approach_date": "2010-10-01",
            "close_approach_date_full": "2010-Oct-01 07:06",
            "epoch_date_close_approach": 1285916760000,
            "relative_velocity": {
                "kilometers_per_second": "6.528075625",
                "kilometers_per_hour": "23501.0722498273",
                "miles_per_hour": "14602.6523654552"
            },
            "miss_distance": {
                "astronomical": "0.1149820613",
                "lunar": "44.7280218457",
                "kilometers": "17201071.458689431",
                "miles": "10688250.1836829078"
            },
            "orbiting_body": "Venus"
        },
        {
            "close_approach_date": "2010-11-07",
            "close_approach_date_full": "2010-Nov-07 18:57",
            "epoch_date_close_approach": 1289156220000,
            "relative_velocity": {
                "kilometers_per_second": "13.3436245529",
                "kilometers_per_hour": "48037.0483903604",
                "miles_per_hour": "29848.3537623326"
            },
            "miss_distance": {
                "astronomical": "0.0192871216",
                "lunar": "7.5026903024",
                "kilometers": "2885312.309790992",
                "miles": "1792849.9337480096"
            },
            "orbiting_body": "Earth"
        }
    ],
    "orbital_data": {
        "orbit_id": "8",
        "orbit_determination_date": "2017-04-06 08:55:46",
        "first_observation_date": "2010-11-10",
        "last_observation_date": "2010-11-16",
        "data_arc_in_days": 6,
        "observations_used": 32,
        "orbit_uncertainty": "8",
        "minimum_orbit_intersection": ".0025977",
        "jupiter_tisserand_invariant": "3.632",
        "epoch_osculation": "2455512.5",
        "eccentricity": ".5837410185518701",
        "semi_major_axis": "1.977857115968668",
        "inclination": "1.576265045243374",
        "ascending_node_longitude": "221.6079464266743",
        "orbital_period": "1015.99319268208",
        "perihelion_distance": ".8233007885430534",
        "perihelion_argument": "128.354805977311",
        "aphelion_distance": "3.132413443394282",
        "perihelion_time": "2455469.961784505645",
        "mean_anomaly": "15.07269703012637",
        "mean_motion": ".3543330827341966",
        "equinox": "J2000",
        "orbit_class": {
            "orbit_class_type": "APO",
            "orbit_class_description": "Near-Earth asteroid orbits which cross the Earth’s orbit similar to that of 1862 Apollo",
            "orbit_class_range": "a (semi-major axis) > 1.0 AU; q (perihelion) < 1.017 AU"
        }
    },
    "is_sentry_object": false
}